[{"OBJECT_NAME":"BISONSAT","OBJECT_ID":"2015-058L","EPOCH":"2026-03-09T11:49:35.353056","MEAN_MOTION":15.13791398,"ECCENTRICITY":0.00792382,"INCLINATION":64.7598,"RA_OF_ASC_NODE":135.3937,"ARG_OF_PERICENTER":90.6713,"MEAN_ANOMALY":270.349,"EPHEMERIS_TYPE":0,"CLASSIFICATION_TYPE":"U","NORAD_CAT_ID":40974,"ELEMENT_SET_NO":999,"REV_AT_EPOCH":10051,"BSTAR":0.0006711096,"MEAN_MOTION_DOT":0.00012971,"MEAN_MOTION_DDOT":0},{"OBJECT_NAME":"STARLINK-6273","OBJECT_ID":"2023-061X","EPOCH":"2026-03-09T07:38:37.879008","MEAN_MOTION":15.02519007,"ECCENTRICITY":0.00012662,"INCLINATION":43.0035,"RA_OF_ASC_NODE":186.9298,"ARG_OF_PERICENTER":268.9572,"MEAN_ANOMALY":91.1126,"EPHEMERIS_TYPE":0,"CLASSIFICATION_TYPE":"U","NORAD_CAT_ID":56395,"ELEMENT_SET_NO":999,"REV_AT_EPOCH":15755,"BSTAR":-1.5324741e-5,"MEAN_MOTION_DOT":-4.1e-6,"MEAN_MOTION_DDOT":0}]
